start=new Date('2022-01-31T00:00:00.000Z').valueOf();
sats=[{"EPOCH":"2022-01-30T21:42:55.094976","BSTAR":"0.00020581000000","ELEMENT_SET_NO":"999","ECCENTRICITY":"0.00015830","SEMIMAJOR_AXIS":"6925.339","NORAD_CAT_ID":"48330","MEAN_ELEMENT_THEORY":"SGP4","COUNTRY_CODE":"US","TLE_LINE2":"2 48330  53.0546 349.9352 0001583  73.1506 286.9657 15.06403165 42131","REV_AT_EPOCH":"4213","MEAN_MOTION_DOT":"0.00002786","SITE":"AFETR","GP_ID":"194983247","APOAPSIS":"548.300","ARG_OF_PERICENTER":"73.1506","EPHEMERIS_TYPE":"0","TIME_SYSTEM":"UTC","DECAY_DATE":null,"INCLINATION":"53.0546","RA_OF_ASC_NODE":"349.9352","TLE_LINE1":"1 48330U 21036BG  22030.90480434  .00002786  00000-0  20581-3 0  9991","PERIOD":"95.592","FILE":"3287903","OBJECT_NAME":"STARLINK-2501","RCS_SIZE":"LARGE","MEAN_ANOMALY":"286.9657","OBJECT_ID":"2021-036BG","OBJECT_TYPE":"PAYLOAD","CENTER_NAME":"EARTH","REF_FRAME":"TEME","PERIAPSIS":"546.108","MEAN_MOTION":"15.06403165","MEAN_MOTION_DDOT":"0.0000000000000","CLASSIFICATION_TYPE":"U","LAUNCH_DATE":"2021-04-29"},{"INCLINATION":"53.0575","RA_OF_ASC_NODE":"350.2425","APOAPSIS":"548.337","EPHEMERIS_TYPE":"0","ARG_OF_PERICENTER":"71.9550","TIME_SYSTEM":"UTC","DECAY_DATE":null,"SITE":"AFETR","GP_ID":"194983997","MEAN_MOTION_DOT":"0.00001267","COUNTRY_CODE":"US","TLE_LINE2":"2 48331  53.0575 350.2425 0001649  71.9550 288.1618 15.06405964 42127","REV_AT_EPOCH":"4212","BSTAR":"0.00010394000000","ELEMENT_SET_NO":"999","ECCENTRICITY":"0.00016490","NORAD_CAT_ID":"48331","SEMIMAJOR_AXIS":"6925.330","MEAN_ELEMENT_THEORY":"SGP4","EPOCH":"2022-01-30T20:02:04.131456","LAUNCH_DATE":"2021-04-29","CLASSIFICATION_TYPE":"U","MEAN_MOTION_DDOT":"0.0000000000000","MEAN_MOTION":"15.06405964","PERIAPSIS":"546.053","OBJECT_TYPE":"PAYLOAD","CENTER_NAME":"EARTH","REF_FRAME":"TEME","RCS_SIZE":"LARGE","OBJECT_ID":"2021-036BH","MEAN_ANOMALY":"288.1618","PERIOD":"95.592","TLE_LINE1":"1 48331U 21036BH  22030.83477004  .00001267  00000-0  10394-3 0  9997","FILE":"3287903","OBJECT_NAME":"STARLINK-2514"},{"MEAN_MOTION_DDOT":"0.0000000000000","CLASSIFICATION_TYPE":"U","LAUNCH_DATE":"2021-04-29","TLE_LINE1":"1 48332U 21036BJ  22030.70112861  .00002613  00000-0  19422-3 0  9998","PERIOD":"95.592","FILE":"3287903","OBJECT_NAME":"STARLINK-2511","RCS_SIZE":"LARGE","OBJECT_ID":"2021-036BJ","MEAN_ANOMALY":"295.9168","OBJECT_TYPE":"PAYLOAD","CENTER_NAME":"EARTH","REF_FRAME":"TEME","MEAN_MOTION":"15.06402638","PERIAPSIS":"546.052","MEAN_MOTION_DOT":"0.00002613","SITE":"AFETR","GP_ID":"194982745","APOAPSIS":"548.359","EPHEMERIS_TYPE":"0","ARG_OF_PERICENTER":"64.1993","TIME_SYSTEM":"UTC","DECAY_DATE":null,"INCLINATION":"53.0549","RA_OF_ASC_NODE":"350.8466","EPOCH":"2022-01-30T16:49:37.511904","ECCENTRICITY":"0.00016660","BSTAR":"0.00019422000000","ELEMENT_SET_NO":"999","SEMIMAJOR_AXIS":"6925.340","NORAD_CAT_ID":"48332","MEAN_ELEMENT_THEORY":"SGP4","COUNTRY_CODE":"US","TLE_LINE2":"2 48332  53.0549 350.8466 0001666  64.1993 295.9168 15.06402638 42103","REV_AT_EPOCH":"4210"},{"TLE_LINE2":"2 48333  53.0541 349.9742 0001727  69.5148 290.6026 15.06407382 42130","REV_AT_EPOCH":"4213","COUNTRY_CODE":"US","SEMIMAJOR_AXIS":"6925.326","NORAD_CAT_ID":"48333","MEAN_ELEMENT_THEORY":"SGP4","ELEMENT_SET_NO":"999","BSTAR":"0.00029598000000","ECCENTRICITY":"0.00017270","EPOCH":"2022-01-30T21:26:59.672544","RA_OF_ASC_NODE":"349.9742","INCLINATION":"53.0541","TIME_SYSTEM":"UTC","EPHEMERIS_TYPE":"0","APOAPSIS":"548.387","ARG_OF_PERICENTER":"69.5148","DECAY_DATE":null,"SITE":"AFETR","GP_ID":"194982995","MEAN_MOTION_DOT":"0.00004131","MEAN_MOTION":"15.06407382","PERIAPSIS":"545.995","CENTER_NAME":"EARTH","OBJECT_TYPE":"PAYLOAD","REF_FRAME":"TEME","OBJECT_ID":"2021-036BK","MEAN_ANOMALY":"290.6026","RCS_SIZE":"LARGE","TLE_LINE1":"1 48333U 21036BK  22030.89374621  .00004131  00000-0  29598-3 0  9995","PERIOD":"95.592","OBJECT_NAME":"STARLINK-2518","FILE":"3287903","LAUNCH_DATE":"2021-04-29","CLASSIFICATION_TYPE":"U","MEAN_MOTION_DDOT":"0.0000000000000"},{"ELEMENT_SET_NO":"999","BSTAR":"0.00036713000000","ECCENTRICITY":"0.00017470","NORAD_CAT_ID":"48334","SEMIMAJOR_AXIS":"6925.300","MEAN_ELEMENT_THEORY":"SGP4","EPOCH":"2022-01-30T14:59:31.307424","COUNTRY_CODE":"US","REV_AT_EPOCH":"4209","TLE_LINE2":"2 48334  53.0544 351.1832 0001747  61.8828 298.2337 15.06415956 42091","GP_ID":"194983747","SITE":"AFETR","MEAN_MOTION_DOT":"0.00005193","INCLINATION":"53.0544","RA_OF_ASC_NODE":"351.1832","DECAY_DATE":null,"ARG_OF_PERICENTER":"61.8828","APOAPSIS":"548.375","EPHEMERIS_TYPE":"0","TIME_SYSTEM":"UTC","RCS_SIZE":"LARGE","MEAN_ANOMALY":"298.2337","OBJECT_ID":"2021-036BL","FILE":"3287903","OBJECT_NAME":"STARLINK-2470","PERIOD":"95.591","TLE_LINE1":"1 48334U 21036BL  22030.62466791  .00005193  00000-0  36713-3 0  9993","MEAN_MOTION":"15.06415956","PERIAPSIS":"545.955","REF_FRAME":"TEME","OBJECT_TYPE":"PAYLOAD","CENTER_NAME":"EARTH","CLASSIFICATION_TYPE":"U","MEAN_MOTION_DDOT":"0.0000000000000","LAUNCH_DATE":"2021-04-29"},{"APOAPSIS":"548.325","ARG_OF_PERICENTER":"75.8347","EPHEMERIS_TYPE":"0","TIME_SYSTEM":"UTC","DECAY_DATE":null,"INCLINATION":"53.0563","RA_OF_ASC_NODE":"351.2077","MEAN_MOTION_DOT":"0.00000396","SITE":"AFETR","GP_ID":"194983498","COUNTRY_CODE":"US","TLE_LINE2":"2 48335  53.0563 351.2077 0001664  75.8347 284.2827 15.06413311 42096","REV_AT_EPOCH":"4209","EPOCH":"2022-01-30T14:54:12.723840","ELEMENT_SET_NO":"999","BSTAR":"0.00004545700000","ECCENTRICITY":"0.00016640","NORAD_CAT_ID":"48335","SEMIMAJOR_AXIS":"6925.308","MEAN_ELEMENT_THEORY":"SGP4","LAUNCH_DATE":"2021-04-29","MEAN_MOTION_DDOT":"0.0000000000000","CLASSIFICATION_TYPE":"U","OBJECT_TYPE":"PAYLOAD","CENTER_NAME":"EARTH","REF_FRAME":"TEME","MEAN_MOTION":"15.06413311","PERIAPSIS":"546.020","PERIOD":"95.591","TLE_LINE1":"1 48335U 21036BM  22030.62098060  .00000396  00000-0  45457-4 0  9990","FILE":"3287903","OBJECT_NAME":"STARLINK-2441","RCS_SIZE":"LARGE","MEAN_ANOMALY":"284.2827","OBJECT_ID":"2021-036BM"},{"SITE":"AFETR","GP_ID":"194982997","MEAN_MOTION_DOT":"0.00001490","RA_OF_ASC_NODE":"249.9913","INCLINATION":"53.0542","EPHEMERIS_TYPE":"0","APOAPSIS":"548.430","ARG_OF_PERICENTER":"69.6449","TIME_SYSTEM":"UTC","DECAY_DATE":null,"BSTAR":"0.00011891000000","ECCENTRICITY":"0.00017560","ELEMENT_SET_NO":"999","SEMIMAJOR_AXIS":"6925.348","NORAD_CAT_ID":"48353","MEAN_ELEMENT_THEORY":"SGP4","EPOCH":"2022-01-30T21:24:21.546720","COUNTRY_CODE":"US","TLE_LINE2":"2 48353  53.0542 249.9913 0001756  69.6449 290.4728 15.06400027 41123","REV_AT_EPOCH":"4112","CLASSIFICATION_TYPE":"U","MEAN_MOTION_DDOT":"0.0000000000000","LAUNCH_DATE":"2021-05-04","RCS_SIZE":"LARGE","OBJECT_ID":"2021-038A","MEAN_ANOMALY":"290.4728","TLE_LINE1":"1 48353U 21038A   22030.89191605  .00001490  00000-0  11891-3 0  9990","PERIOD":"95.592","FILE":"3287903","OBJECT_NAME":"STARLINK-2613","PERIAPSIS":"545.997","MEAN_MOTION":"15.06400027","OBJECT_TYPE":"PAYLOAD","CENTER_NAME":"EARTH","REF_FRAME":"TEME"},{"SITE":"AFETR","GP_ID":"194983749","MEAN_MOTION_DOT":"0.00000126","INCLINATION":"53.0549","RA_OF_ASC_NODE":"250.0009","APOAPSIS":"548.567","EPHEMERIS_TYPE":"0","ARG_OF_PERICENTER":"72.5986","TIME_SYSTEM":"UTC","DECAY_DATE":null,"ECCENTRICITY":"0.00019510","BSTAR":"0.00002733900000","ELEMENT_SET_NO":"999","SEMIMAJOR_AXIS":"6925.351","NORAD_CAT_ID":"48354","MEAN_ELEMENT_THEORY":"SGP4","EPOCH":"2022-01-30T21:19:02.612352","COUNTRY_CODE":"US","TLE_LINE2":"2 48354  53.0549 250.0009 0001951  72.5986 287.5216 15.06399262 41123","REV_AT_EPOCH":"4112","CLASSIFICATION_TYPE":"U","MEAN_MOTION_DDOT":"0.0000000000000","LAUNCH_DATE":"2021-05-04","RCS_SIZE":"LARGE","MEAN_ANOMALY":"287.5216","OBJECT_ID":"2021-038B","TLE_LINE1":"1 48354U 21038B   22030.88822468  .00000126  00000-0  27339-4 0  9998","PERIOD":"95.592","FILE":"3287903","OBJECT_NAME":"STARLINK-2674","MEAN_MOTION":"15.06399262","PERIAPSIS":"545.865","OBJECT_TYPE":"PAYLOAD","CENTER_NAME":"EARTH","REF_FRAME":"TEME"},{"GP_ID":"194983500","SITE":"AFETR","MEAN_MOTION_DOT":"0.00002078","RA_OF_ASC_NODE":"250.0232","INCLINATION":"53.0533","DECAY_DATE":null,"EPHEMERIS_TYPE":"0","APOAPSIS":"548.544","ARG_OF_PERICENTER":"73.7645","TIME_SYSTEM":"UTC","BSTAR":"0.00015834000000","ELEMENT_SET_NO":"999","ECCENTRICITY":"0.00019420","NORAD_CAT_ID":"48355","SEMIMAJOR_AXIS":"6925.334","MEAN_ELEMENT_THEORY":"SGP4","EPOCH":"2022-01-30T21:13:44.039136","COUNTRY_CODE":"US","TLE_LINE2":"2 48355  53.0533 250.0232 0001942  73.7645 286.3558 15.06404711 41122","REV_AT_EPOCH":"4112","CLASSIFICATION_TYPE":"U","MEAN_MOTION_DDOT":"0.0000000000000","LAUNCH_DATE":"2021-05-04","RCS_SIZE":"LARGE","MEAN_ANOMALY":"286.3558","OBJECT_ID":"2021-038C","FILE":"3287903","OBJECT_NAME":"STARLINK-2635","TLE_LINE1":"1 48355U 21038C   22030.88453749  .00002078  00000-0  15834-3 0  9995","PERIOD":"95.592","MEAN_MOTION":"15.06404711","PERIAPSIS":"545.854","REF_FRAME":"TEME","OBJECT_TYPE":"PAYLOAD","CENTER_NAME":"EARTH"},{"LAUNCH_DATE":"2021-05-04","CLASSIFICATION_TYPE":"U","MEAN_MOTION_DDOT":"0.0000000000000","MEAN_MOTION":"15.06394644","PERIAPSIS":"546.091","CENTER_NAME":"EARTH","OBJECT_TYPE":"PAYLOAD","REF_FRAME":"TEME","OBJECT_ID":"2021-038D","MEAN_ANOMALY":"292.8291","RCS_SIZE":"LARGE","TLE_LINE1":"1 48356U 21038D   22030.88085263  .00000383  00000-0  44614-4 0  9994","PERIOD":"95.592","OBJECT_NAME":"STARLINK-2637","FILE":"3287903","INCLINATION":"53.0565","RA_OF_ASC_NODE":"250.0379","TIME_SYSTEM":"UTC","APOAPSIS":"548.369","EPHEMERIS_TYPE":"0","ARG_OF_PERICENTER":"67.2871","DECAY_DATE":null,"SITE":"AFETR","GP_ID":"194982248","MEAN_MOTION_DOT":"0.00000383","TLE_LINE2":"2 48356  53.0565 250.0379 0001644  67.2871 292.8291 15.06394644 41127","REV_AT_EPOCH":"4112","COUNTRY_CODE":"US","SEMIMAJOR_AXIS":"6925.365","NORAD_CAT_ID":"48356","MEAN_ELEMENT_THEORY":"SGP4","ECCENTRICITY":"0.00016440","BSTAR":"0.00004461400000","ELEMENT_SET_NO":"999","EPOCH":"2022-01-30T21:08:25.667232"}];
